#aV2022  5 28  0  0  0.00000000     288 DD+AD WGS84 FIT  NGA
## 2211 518400.00000000   300.00000000 59727 0.0000000000000
+   32     1  2  3  4  5  6  7  8  9 10 11 12 13 14 15 16 17
+         18 19 20 21 22 23 24 25 26 27 28 29 30 31 32  0  0
+          0  0  0  0  0  0  0  0  0  0  0  0  0  0  0  0  0
+          0  0  0  0  0  0  0  0  0  0  0  0  0  0  0  0  0
+          0  0  0  0  0  0  0  0  0  0  0  0  0  0  0  0  0
++         2  2  2  2  2  2  2  2  2  2  2  2  2  2  2  2  2
++         2  2  2  2  2  2  2  2  2  2  2  2  2  2  2  0  0
++         0  0  0  0  0  0  0  0  0  0  0  0  0  0  0  0  0
++         0  0  0  0  0  0  0  0  0  0  0  0  0  0  0  0  0
++         0  0  0  0  0  0  0  0  0  0  0  0  0  0  0  0  0
%c cc cc ccc ccc cccc cccc cccc cccc ccccc ccccc ccccc ccccc
%c cc cc ccc ccc cccc cccc cccc cccc ccccc ccccc ccccc ccccc
%f  0.0000000  0.000000000  0.00000000000  0.000000000000000
%f  0.0000000  0.000000000  0.00000000000  0.000000000000000
%i    0    0    0    0      0      0      0      0         0
%i    0    0    0    0      0      0      0      0         0
/*      NGA, ST. LOUIS,MO.                                  
/*   EPHEMERIS COMPUTED FROM 2 DAYS OF DATA                 
/*   EPOCHA v7 SMOOTHER                                     
/*   G2139 IERS2010 SATIGS SATAPC                           
*  2022  5 28 10  0  0.00000000
P  1  -7830.878345 -13583.762185 -21794.744744    353.348224                    
V  1  26631.730559  -3219.047463  -7327.972020     -0.081358                    
P  2 -15222.751061  14864.878453  16644.194336   -653.092778                    
V  2 -19742.545803   2543.936010 -21020.844115      0.002007                    
P  3 -11955.704084 -22947.901918  -6367.961139   -259.861823                    
V  3   6513.995904   4981.594179 -30602.687693     -0.128943                    
P  4  -1877.274115 -21539.193108  15377.917046   -162.928874                    
V  4  10064.605752 -16878.725964 -22511.833003      0.037748                    
P  5   -130.897705  19441.069704  17862.505371    -83.460891                    
V  5 -16014.842317 -16697.035231  18035.073459     -0.013739                    
P  6 -25586.601886   5926.466351   4304.819015    320.754925                    
V  6  -5545.089991  -1210.996326 -31664.188896      0.149705                    
P  7 -22406.008201  -6906.634232  13345.468512    322.202446                    
V  7  15766.088016  -3922.715557  24718.057528     -0.000757                    
P  8   4016.192691 -24884.529356  -7820.085233    -69.798435                    
V  8   6310.047560  -8221.066601  29898.426460     -0.015322                    
P  9 -10471.619309 -13070.143447  20541.554854   -333.214585                    
V  9  10632.757155 -24034.581994  -9870.350999      0.030955                    
P 10  19143.797404   5389.472656 -17601.010782   -431.986770                    
V 10  12592.922420  18688.530953  18973.904157     -0.153200                    
P 11 -16766.897872  12545.263952  16321.994707    -19.950261                    
V 11 -20813.471637   -388.464431 -21093.804149      0.038066                    
P 12   7141.826716  23674.305363 -10114.603636   -222.331222                    
V 12  -8538.450007  -9240.616034 -28306.774780     -0.058380                    
P 13 -13028.377688  23028.206027   -735.706418    319.594771                    
V 13  -2735.645854   -740.044311  32016.265014      0.068467                    
P 14 -19389.144432  -6775.660456 -16892.230836   -110.027731                    
V 14 -10754.125345 -18634.010634  19727.330556     -0.012734                    
P 15   -230.642448  25072.469429  -8687.942544    -57.743072                    
V 15  -6335.408829   9258.454842  28546.634386      0.029976                    
P 16   6400.204262 -15705.637040  20043.300696   -504.580594                    
V 16  14938.932297  21521.053347  12374.534388     -0.030548                    
P 17 -16965.299089   4705.808587 -19470.526160    618.101897                    
V 17  10411.835464 -23419.083612 -14366.894414      0.045829                    
P 18  21821.800615   6988.388170  13519.006617    158.076051                    
V 18 -16827.899186   3650.345902  25148.760078     -0.104080                    
P 19 -18328.956121  11624.038243 -15421.195165    163.179681                    
V 19   7794.244046 -17593.933790 -23119.671841      0.049948                    
P 20  -9391.039541  12547.897103  21455.586216    513.847229                    
V 20 -19781.420901 -18802.911143   2109.689832     -0.010475                    
P 21   3003.081264 -15401.913775 -20684.036442    161.233068                    
V 21  27523.515862  -4605.543112   7873.230613      0.000917                    
P 22  17678.538145 -14795.325035 -12615.458022    266.398172                    
V 22  -5518.501073  16027.856363 -25861.624060      0.062099                    
P 23  20112.865326  14591.253010  -9537.959043    -24.687260                    
V 23   5810.300279  10791.783242  28689.739018     -0.023261                    
P 24   3917.829002  15453.787808 -21550.076177    232.682620                    
V 24 -26228.446151   5312.748139   -557.814753     -0.075039                    
P 25  17595.574787  19883.646462   2600.692707    330.312881                    
V 25     60.371219   4529.073816 -31268.400597      0.047382                    
P 26  14479.401421  -6886.944481  21120.527861    208.630262                    
V 26  17214.794696  20896.090721  -4660.492296      0.025266                    
P 27  12538.650618 -22784.525741   4009.099362    209.281730                    
V 27    467.583353   6064.072507  31714.952371      0.048724                    
P 28 -15658.033860   1911.649605 -20819.685999    349.620568                    
V 28 -13866.515436 -23938.479193   8259.377605     -0.073169                    
P 29   8818.226442  13594.860010  20976.945808   -518.267796                    
V 29 -12829.662088  23446.083251  -9842.210900     -0.039172                    
P 30 -26352.332548   -374.876374   4354.006931   -529.512452                    
V 30   5018.251003  -3859.909255  30385.898185     -0.013393                    
P 31  25006.644843  -7093.076174   6416.958376   -179.462229                    
V 31   8429.422867   1667.426286 -29930.719445     -0.015655                    
P 32  17214.760017  -7490.454787 -18564.462131   -137.476319                    
V 32  -7618.175933  22773.008586 -16309.544553     -0.089704                    
EOF
